{
    "type": "FeatureCollection",
    "name": "M_road",
    "crs": {
        "type": "name",
        "properties": {
            "name": "urn:ogc:def:crs:EPSG::32636"
        }
    },
    "features": [
        {
            "type": "Feature",
            "properties": {
                "fid": 1,
                "id": 2
            },
            "geometry": {
                "type": "MultiLineString",
                "coordinates": [
                    [
                        [
                            485922.267346292268485,
                            2675703.007257494609803
                        ],
                        [
                            485897.994061891222373,
                            2675698.002456586342305
                        ],
                        [
                            485867.715016400848981,
                            2675688.99381495360285
                        ],
                        [
                            485834.933570456749294,
                            2675676.231572638265789
                        ],
                        [
                            485813.162686509487685,
                            2675666.722450915724039
                        ],
                        [
                            485782.383160928089637,
                            2675649.706127830315381
                        ],
                        [
                            485746.849074485246092,
                            2675625.557963451370597
                        ],
                        [
                            485723.82699031062657,
                            2675607.040200093295425
                        ],
                        [
                            485698.052265636913944,
                            2675585.519556189887226
                        ],
                        [
                            485698.052265636913944,
                            2675585.519556189421564
                        ],
                        [
                            485680.28522241540486,
                            2675569.6293133078143
                        ],
                        [
                            485657.513378286443185,
                            2675550.611069861799479
                        ],
                        [
                            485626.733852705452591,
                            2675524.085625051986426
                        ],
                        [
                            485584.443285036773887,
                            2675488.551538608036935
                        ],
                        [
                            485558.168080272444058,
                            2675466.280174571089447
                        ],
                        [
                            485534.520395984407514,
                            2675445.760490850079805
                        ],
                        [
                            485516.503112717473414,
                            2675429.745127944741398
                        ],
                        [
                            485490.978628089709673,
                            2675408.224484043195844
                        ],
                        [
                            485466.204863597406074,
                            2675387.454560277052224
                        ],
                        [
                            485443.558139491127804,
                            2675368.186076784040779
                        ],
                        [
                            485415.030774318380281,
                            2675344.163032427430153
                        ],
                        [
                            485391.758450099092443,
                            2675324.894548933953047
                        ],
                        [
                            485370.988526332424954,
                            2675306.877265667077154
                        ],
                        [
                            485351.720042839180678,
                            2675290.111182627268136
                        ],
                        [
                            485323.693157757574227,
                            2675266.588618360459805
                        ],
                        [
                            485297.918433083279524,
                            2675244.317254323512316
                        ],
                        [
                            485279.901149816520046,
                            2675229.803331690840423
                        ],
                        [
                            485265.887707275454886,
                            2675217.541569468565285
                        ],
                        [
                            485254.62690523348283,
                            2675206.781247516628355
                        ],
                        [
                            485228.476820491836406,
                            2675184.134523410815746
                        ],
                        [
                            485212.461457588127814,
                            2675169.370360733941197
                        ],
                        [
                            485187.687693095882423,
                            2675144.096116150263697
                        ],
                        [
                            485160.912008240702562,
                            2675115.068270887713879
                        ],
                        [
                            485144.771525314601604,
                            2675093.297386939171702
                        ],
                        [
                            485131.258562864211854,
                            2675074.028903446160257
                        ],
                        [
                            485116.24416014138842,
                            2675054.00969981495291
                        ],
                        [
                            485104.482878009439446,
                            2675034.741216321941465
                        ],
                        [
                            485091.220155604416505,
                            2675012.219612237066031
                        ],
                        [
                            485083.712954242655542,
                            2674996.454489378724247
                        ],
                        [
                            485070.825591906439513,
                            2674972.181204978842288
                        ],
                        [
                            485062.317430363153107,
                            2674953.413201575633138
                        ],
                        [
                            485047.303027641202789,
                            2674921.882955857086927
                        ],
                        [
                            485026.032623784383759,
                            2674877.089987735729665
                        ],
                        [
                            485026.032623784383759,
                            2674877.089987735729665
                        ]
                    ]
                ]
            }
        }
    ]
}