{
    "type": "FeatureCollection",
    "name": "mainR",
    "crs": {
        "type": "name",
        "properties": {
            "name": "urn:ogc:def:crs:EPSG::32636"
        }
    },
    "features": [
        {
            "type": "Feature",
            "properties": {
                "Road_ID": 1,
                "Road_Name": "Main_Road1",
                "Road_Type": "Main"
            },
            "geometry": {
                "type": "MultiLineString",
                "coordinates": [
                    [
                        [
                            484922.107976413681172,
                            2674635.853551843203604
                        ],
                        [
                            484920.450707989628427,
                            2674629.776900955010206
                        ],
                        [
                            484919.069650969584472,
                            2674624.252672874368727
                        ],
                        [
                            484917.964805353549309,
                            2674620.385713218245655
                        ],
                        [
                            484916.583748333505355,
                            2674615.13769654231146
                        ],
                        [
                            484915.478902717411984,
                            2674610.994525481946766
                        ],
                        [
                            484914.37405710137682,
                            2674607.403777230065316
                        ],
                        [
                            484912.716788677324075,
                            2674602.155760553665459
                        ],
                        [
                            484912.164365869306494,
                            2674598.288800897542387
                        ],
                        [
                            484911.335731657280121,
                            2674594.698052645195276
                        ],
                        [
                            484910.507097445253748,
                            2674590.831092989072204
                        ],
                        [
                            484908.849829021317419,
                            2674586.964133332949132
                        ],
                        [
                            484907.468772001273464,
                            2674581.439905252773315
                        ],
                        [
                            484906.363926385238301,
                            2674576.191888576373458
                        ],
                        [
                            484905.535292173211928,
                            2674572.324928920250386
                        ],
                        [
                            484903.049389537074603,
                            2674564.729115309659392
                        ],
                        [
                            484901.94454392103944,
                            2674559.204887229483575
                        ],
                        [
                            484900.287275496986695,
                            2674553.404447745531797
                        ],
                        [
                            484898.077584264916368,
                            2674547.051585453096777
                        ],
                        [
                            484896.696527244814206,
                            2674539.870088948868215
                        ],
                        [
                            484896.052033968735486,
                            2674534.714142740238458
                        ],
                        [
                            484894.394765544682741,
                            2674528.913703255821019
                        ],
                        [
                            484893.842342736665159,
                            2674523.665686579886824
                        ],
                        [
                            484892.461285716621205,
                            2674517.312824287451804
                        ],
                        [
                            484886.384634828369599,
                            2674475.881113685667515
                        ],
                        [
                            484885.832212020352017,
                            2674466.489925949368626
                        ],
                        [
                            484885.279789212334435,
                            2674460.413275061175227
                        ],
                        [
                            484883.898732192290481,
                            2674448.53618468856439
                        ],
                        [
                            484881.689040960161947,
                            2674420.362621479202062
                        ],
                        [
                            484880.031772536109202,
                            2674392.741481078322977
                        ],
                        [
                            484879.203138324082829,
                            2674377.549853857606649
                        ],
                        [
                            484878.650715516065247,
                            2674361.52959242509678
                        ],
                        [
                            484878.374504112056457,
                            2674348.271445032674819
                        ],
                        [
                            484878.926926920074038,
                            2674331.146337983664125
                        ],
                        [
                            484878.926926920074038,
                            2674309.325637066271156
                        ],
                        [
                            484878.374504112056457,
                            2674251.597453628201038
                        ],
                        [
                            484879.47934972809162,
                            2674172.186674975324422
                        ],
                        [
                            484878.926926920074038,
                            2674090.428099387791008
                        ],
                        [
                            484879.203138324082829,
                            2673990.301465433556587
                        ],
                        [
                            484879.295208792027552,
                            2673872.635407323483378
                        ],
                        [
                            484878.926926920074038,
                            2673737.660101231187582
                        ],
                        [
                            484880.031772536167409,
                            2673628.786772816907614
                        ],
                        [
                            484879.755561132158618,
                            2673531.560358604881912
                        ],
                        [
                            484880.860406748193782,
                            2673387.654217114672065
                        ],
                        [
                            484880.584195344184991,
                            2673172.761744793970138
                        ],
                        [
                            484879.755561132042203,
                            2672977.342176456470042
                        ],
                        [
                            484879.387279259972274,
                            2672961.413985491730273
                        ],
                        [
                            484879.111067855963483,
                            2672951.746586351189762
                        ],
                        [
                            484878.558645047945902,
                            2672945.393724058754742
                        ],
                        [
                            484876.901376623893157,
                            2672936.554959130473435
                        ],
                        [
                            484876.348953815875575,
                            2672930.754519646521658
                        ],
                        [
                            484875.520319603849202,
                            2672925.230291565880179
                        ],
                        [
                            484874.967896795831621,
                            2672919.706063485704362
                        ],
                        [
                            484873.586839775729459,
                            2672913.629412597510964
                        ],
                        [
                            484872.481994159694295,
                            2672906.447916093282402
                        ],
                        [
                            484871.100937139650341,
                            2672899.266419589053839
                        ],
                        [
                            484869.719880119606387,
                            2672892.637345892842859
                        ],
                        [
                            484868.338823099504225,
                            2672887.113117812667042
                        ],
                        [
                            484867.233977483469062,
                            2672881.588889732491225
                        ],
                        [
                            484865.852920463425107,
                            2672874.959816035814583
                        ],
                        [
                            484864.748074847389944,
                            2672869.711799359880388
                        ],
                        [
                            484863.36701782734599,
                            2672863.635148471686989
                        ],
                        [
                            484862.262172211252619,
                            2672858.939554603304714
                        ],
                        [
                            484860.328692383191083,
                            2672853.967749331146479
                        ],
                        [
                            484859.50005817116471,
                            2672849.272155462764204
                        ],
                        [
                            484857.566578343103174,
                            2672845.128984402865171
                        ],
                        [
                            484855.35688711097464,
                            2672837.395065090619028
                        ],
                        [
                            484852.870984474895522,
                            2672830.765991393942386
                        ],
                        [
                            484849.004024818714242,
                            2672820.822380849625915
                        ],
                        [
                            484846.241910778626334,
                            2672813.364672941155732
                        ],
                        [
                            484842.651162526453845,
                            2672803.973485204856843
                        ],
                        [
                            484838.231780062254984,
                            2672792.648817640263587
                        ],
                        [
                            484832.155129174003378,
                            2672778.562036036048084
                        ],
                        [
                            484827.459535305853933,
                            2672767.789791279472411
                        ],
                        [
                            484823.500505181669723,
                            2672758.306533075403422
                        ],
                        [
                            484818.52869990945328,
                            2672748.639133934862912
                        ],
                        [
                            484815.21416306134779,
                            2672738.971734794322401
                        ],
                        [
                            484811.07099200115772,
                            2672730.961604078300297
                        ],
                        [
                            484807.480243748985231,
                            2672722.39905055379495
                        ],
                        [
                            484804.165706900879741,
                            2672718.532090897671878
                        ],
                        [
                            484801.679804264742415,
                            2672711.350594393443316
                        ],
                        [
                            484797.260421800601762,
                            2672703.892886484973133
                        ],
                        [
                            484791.459982316358946,
                            2672693.949275940656662
                        ],
                        [
                            484785.659542832116131,
                            2672683.72945399209857
                        ],
                        [
                            484781.240160367917269,
                            2672675.995534679852426
                        ],
                        [
                            484776.130249393696431,
                            2672667.57108685746789
                        ],
                        [
                            484770.606021313462406,
                            2672659.008533333428204
                        ],
                        [
                            484764.253159021202009,
                            2672649.617345596663654
                        ],
                        [
                            484756.795451112906449,
                            2672638.016466628294438
                        ],
                        [
                            484748.509108992526308,
                            2672628.072856083977968
                        ],
                        [
                            484740.775189680221956,
                            2672617.576822731643915
                        ],
                        [
                            484733.041270367917605,
                            2672606.52836657082662
                        ],
                        [
                            484725.583562459563836,
                            2672598.794447258580476
                        ],
                        [
                            484717.573431743250694,
                            2672589.679470926523209
                        ],
                        [
                            484706.524975582782645,
                            2672577.52616914967075
                        ],
                        [
                            484695.476519422314595,
                            2672564.820444565266371
                        ],
                        [
                            484688.847445726045407,
                            2672558.329476571176201
                        ],
                        [
                            484680.284892201714683,
                            2672551.976614278741181
                        ],
                        [
                            484672.550972889352124,
                            2672543.690272158477455
                        ],
                        [
                            484655.425865840632468,
                            2672527.117587917950004
                        ],
                        [
                            484643.272564064129256,
                            2672516.621554565150291
                        ],
                        [
                            484636.919701771868858,
                            2672511.925960697233677
                        ],
                        [
                            484627.804725439520553,
                            2672504.744464193005115
                        ],
                        [
                            484618.96596051112283,
                            2672497.01054488029331
                        ],
                        [
                            484611.78446400683606,
                            2672492.591162416152656
                        ],
                        [
                            484602.945699078438338,
                            2672486.514511527959257
                        ],
                        [
                            484590.239974493917543,
                            2672477.95195800345391
                        ],
                        [
                            484578.362884121423122,
                            2672469.941827287431806
                        ],
                        [
                            484567.038216556946281,
                            2672462.760330783203244
                        ],
                        [
                            484556.818394608504605,
                            2672456.959891298785806
                        ],
                        [
                            484545.217515640018973,
                            2672451.159451814368367
                        ],
                        [
                            484536.378750711679459,
                            2672445.082800926174968
                        ],
                        [
                            484527.263774379272945,
                            2672440.387207058258355
                        ],
                        [
                            484520.910912087012548,
                            2672437.072670210152864
                        ],
                        [
                            484517.596375238907058,
                            2672435.139190381858498
                        ],
                        [
                            484517.596375238907058,
                            2672435.415401786100119
                        ],
                        [
                            484517.596375238907058,
                            2672435.415401786100119
                        ]
                    ]
                ]
            }
        }
    ]
}