{
  "type": "FeatureCollection",
  "name": "points_merged",
  "crs": {
    "type": "name",
    "properties": {
      "name": "urn:ogc:def:crs:EPSG::32636"
    }
  },
  "features": [
    {
      "type": "Feature",
      "properties": {
        "fid": 1,
        "id": 2,
        "distance": 60.0,
        "angle": 248.728391074098,
        "group": "M",
        "sign_size": "3 × 4 m"
      },
      "geometry": {
        "type": "Point",
        "coordinates": [485864.336643269, 2675687.6785704517]
      }
    },
    {
      "type": "Feature",
      "properties": {
        "fid": 1,
        "id": 2,
        "distance": 120.0,
        "angle": 241.06418449301708,
        "group": "M",
        "sign_size": "3 × 4 m"
      },
      "geometry": {
        "type": "Point",
        "coordinates": [485809.05792989815, 2675664.453154578]
      }
    },
    {
      "type": "Feature",
      "properties": {
        "fid": 1,
        "id": 2,
        "distance": 180.0,
        "angle": 235.80085574518955,
        "group": "M",
        "sign_size": "3 × 4 m"
      },
      "geometry": {
        "type": "Point",
        "coordinates": [485757.9673276391, 2675633.113677743]
      }
    },
    {
      "type": "Feature",
      "properties": {
        "fid": 1,
        "id": 2,
        "distance": 240.0,
        "angle": 230.13975737756942,
        "group": "M",
        "sign_size": "3 × 4 m"
      },
      "geometry": {
        "type": "Point",
        "coordinates": [485710.76834530826, 2675596.1368654305]
      }
    },
    {
      "type": "Feature",
      "properties": {
        "fid": 1,
        "id": 2,
        "distance": 300.0,
        "angle": 230.13255444335442,
        "group": "M",
        "sign_size": "3 × 4 m"
      },
      "geometry": {
        "type": "Point",
        "coordinates": [485665.2432360588, 2675557.0667752535]
      }
    },
    {
      "type": "Feature",
      "properties": {
        "fid": 1,
        "id": 2,
        "distance": 360.0,
        "angle": 229.96179070983803,
        "group": "M",
        "sign_size": "3 × 4 m"
      },
      "geometry": {
        "type": "Point",
        "coordinates": [485619.6161714294, 2675518.1050881217]
      }
    },
    {
      "type": "Feature",
      "properties": {
        "fid": 1,
        "id": 2,
        "distance": 420.0,
        "angle": 229.71475452046778,
        "group": "M",
        "sign_size": "3 × 4 m"
      },
      "geometry": {
        "type": "Point",
        "coordinates": [485573.71833021566, 2675479.4608626175]
      }
    },
    {
      "type": "Feature",
      "properties": {
        "fid": 1,
        "id": 2,
        "distance": 480.0,
        "angle": 228.36646066094815,
        "group": "M",
        "sign_size": "3 × 4 m"
      },
      "geometry": {
        "type": "Point",
        "coordinates": [485528.3124801125, 2675440.242343408]
      }
    },
    {
      "type": "Feature",
      "properties": {
        "fid": 1,
        "id": 2,
        "distance": 540.0,
        "angle": 230.0240752587176,
        "group": "M",
        "sign_size": "3 × 4 m"
      },
      "geometry": {
        "type": "Point",
        "coordinates": [485482.6921538564, 2675401.277237969]
      }
    },
    {
      "type": "Feature",
      "properties": {
        "fid": 1,
        "id": 2,
        "distance": 600.0,
        "angle": 229.89909245306774,
        "group": "M",
        "sign_size": "3 × 4 m"
      },
      "geometry": {
        "type": "Point",
        "coordinates": [485436.8649223349, 2675362.549683389]
      }
    },
    {
      "type": "Feature",
      "properties": {
        "fid": 1,
        "id": 2,
        "distance": 660.0,
        "angle": 229.05934636573537,
        "group": "M",
        "sign_size": "3 × 4 m"
      },
      "geometry": {
        "type": "Point",
        "coordinates": [485390.8206452624, 2675324.0810314855]
      }
    },
    {
      "type": "Feature",
      "properties": {
        "fid": 1,
        "id": 2,
        "distance": 720.0,
        "angle": 229.99374398355809,
        "group": "M",
        "sign_size": "3 × 4 m"
      },
      "geometry": {
        "type": "Point",
        "coordinates": [485345.43586928555, 2675284.836965537]
      }
    },
    {
      "type": "Feature",
      "properties": {
        "fid": 1,
        "id": 2,
        "distance": 780.0,
        "angle": 229.1704365273954,
        "group": "M",
        "sign_size": "3 × 4 m"
      },
      "geometry": {
        "type": "Point",
        "coordinates": [485299.7719471755, 2675245.9188344614]
      }
    },
    {
      "type": "Feature",
      "properties": {
        "fid": 1,
        "id": 2,
        "distance": 840.0,
        "angle": 229.10649716590828,
        "group": "M",
        "sign_size": "3 × 4 m"
      },
      "geometry": {
        "type": "Point",
        "coordinates": [485254.4617903873, 2675206.6382533195]
      }
    },
    {
      "type": "Feature",
      "properties": {
        "fid": 1,
        "id": 2,
        "distance": 900.0,
        "angle": 224.42706130154627,
        "group": "M",
        "sign_size": "3 × 4 m"
      },
      "geometry": {
        "type": "Point",
        "coordinates": [485209.77158338885, 2675166.6261456418]
      }
    },
    {
      "type": "Feature",
      "properties": {
        "fid": 1,
        "id": 2,
        "distance": 960.0,
        "angle": 222.6888685482318,
        "group": "M",
        "sign_size": "3 × 4 m"
      },
      "geometry": {
        "type": "Point",
        "coordinates": [485168.3970162491, 2675123.1828590087]
      }
    },
    {
      "type": "Feature",
      "properties": {
        "fid": 1,
        "id": 2,
        "distance": 1020.0,
        "angle": 215.04192940302471,
        "group": "M",
        "sign_size": "3 × 4 m"
      },
      "geometry": {
        "type": "Point",
        "coordinates": [485132.22060214635, 2675075.4007002003]
      }
    },
    {
      "type": "Feature",
      "properties": {
        "fid": 1,
        "id": 2,
        "distance": 1080.0,
        "angle": 210.4933584015032,
        "group": "M",
        "sign_size": "3 × 4 m"
      },
      "geometry": {
        "type": "Point",
        "coordinates": [485099.04003647517, 2675025.4986552256]
      }
    },
    {
      "type": "Feature",
      "properties": {
        "fid": 1,
        "id": 2,
        "distance": 1140.0,
        "angle": 207.96507665588328,
        "group": "M",
        "sign_size": "3 × 4 m"
      },
      "geometry": {
        "type": "Point",
        "coordinates": [485070.9916405003, 2674972.4939567]
      }
    },
    {
      "type": "Feature",
      "properties": {
        "Road_ID": 1,
        "Road_Name": "Main_Road1",
        "Road_Type": "Main",
        "distance": 150.0,
        "angle": 188.34389158401945,
        "group": "Main",
        "sign_size": "4 × 5 m"
      },
      "geometry": {
        "type": "Point",
        "coordinates": [484888.4647490013, 2674490.0637103193]
      }
    },
    {
      "type": "Feature",
      "properties": {
        "Road_ID": 1,
        "Road_Name": "Main_Road1",
        "Road_Type": "Main",
        "distance": 300.0,
        "angle": 178.15238973405559,
        "group": "Main",
        "sign_size": "4 × 5 m"
      },
      "geometry": {
        "type": "Point",
        "coordinates": [484878.6248097864, 2674340.511969128]
      }
    },
    {
      "type": "Feature",
      "properties": {
        "Road_ID": 1,
        "Road_Name": "Main_Road1",
        "Road_Type": "Main",
        "distance": 450.0,
        "angle": 179.20289275861708,
        "group": "Main",
        "sign_size": "4 × 5 m"
      },
      "geometry": {
        "type": "Point",
        "coordinates": [484879.2242023262, 2674190.525394487]
      }
    },
    {
      "type": "Feature",
      "properties": {
        "Road_ID": 1,
        "Road_Name": "Main_Road1",
        "Road_Type": "Main",
        "distance": 600.0,
        "angle": 179.84194307814323,
        "group": "Main",
        "sign_size": "4 × 5 m"
      },
      "geometry": {
        "type": "Point",
        "coordinates": [484879.06457898603, 2674040.529225476]
      }
    },
    {
      "type": "Feature",
      "properties": {
        "Road_ID": 1,
        "Road_Name": "Main_Road1",
        "Road_Type": "Main",
        "distance": 750.0,
        "angle": 179.95516763084322,
        "group": "Main",
        "sign_size": "4 × 5 m"
      },
      "geometry": {
        "type": "Point",
        "coordinates": [484879.28120719595, 2673890.5294471355]
      }
    },
    {
      "type": "Feature",
      "properties": {
        "Road_ID": 1,
        "Road_Name": "Main_Road1",
        "Road_Type": "Main",
        "distance": 900.0,
        "angle": 180.1563318890035,
        "group": "Main",
        "sign_size": "4 × 5 m"
      },
      "geometry": {
        "type": "Point",
        "coordinates": [484878.9347573242, 2673740.5299443607]
      }
    },
    {
      "type": "Feature",
      "properties": {
        "Road_ID": 1,
        "Road_Name": "Main_Road1",
        "Road_Type": "Main",
        "distance": 1050.0,
        "angle": 180.16277166299159,
        "group": "Main",
        "sign_size": "4 × 5 m"
      },
      "geometry": {
        "type": "Point",
        "coordinates": [484879.92310475895, 2673590.5357152386]
      }
    },
    {
      "type": "Feature",
      "properties": {
        "Road_ID": 1,
        "Road_Name": "Main_Road1",
        "Road_Type": "Main",
        "distance": 1200.0,
        "angle": 179.56011782117477,
        "group": "Main",
        "sign_size": "4 × 5 m"
      },
      "geometry": {
        "type": "Point",
        "coordinates": [484880.4543843398, 2673440.5386358094]
      }
    },
    {
      "type": "Feature",
      "properties": {
        "Road_ID": 1,
        "Road_Name": "Main_Road1",
        "Road_Type": "Main",
        "distance": 1350.0,
        "angle": 180.07364492025644,
        "group": "Main",
        "sign_size": "4 × 5 m"
      },
      "geometry": {
        "type": "Point",
        "coordinates": [484880.7355816293, 2673290.5402746354]
      }
    },
    {
      "type": "Feature",
      "properties": {
        "Road_ID": 1,
        "Road_Name": "Main_Road1",
        "Road_Type": "Main",
        "distance": 1500.0,
        "angle": 180.24294884578859,
        "group": "Main",
        "sign_size": "4 × 5 m"
      },
      "geometry": {
        "type": "Point",
        "coordinates": [484880.447568843, 2673140.5406615934]
      }
    },
    {
      "type": "Feature",
      "properties": {
        "Road_ID": 1,
        "Road_Name": "Main_Road1",
        "Road_Type": "Main",
        "distance": 1650.0,
        "angle": 180.24294884578859,
        "group": "Main",
        "sign_size": "4 × 5 m"
      },
      "geometry": {
        "type": "Point",
        "coordinates": [484879.811532158, 2672990.542010075]
      }
    },
    {
      "type": "Feature",
      "properties": {
        "Road_ID": 1,
        "Road_Name": "Main_Road1",
        "Road_Type": "Main",
        "distance": 1800.0,
        "angle": 195.94539590132149,
        "group": "Main",
        "sign_size": "4 × 5 m"
      },
      "geometry": {
        "type": "Point",
        "coordinates": [484856.99310375686, 2672843.1218233514]
      }
    },
    {
      "type": "Feature",
      "properties": {
        "Road_ID": 1,
        "Road_Name": "Main_Road1",
        "Road_Type": "Main",
        "distance": 1950.0,
        "angle": 210.65066795626831,
        "group": "Main",
        "sign_size": "4 × 5 m"
      },
      "geometry": {
        "type": "Point",
        "coordinates": [484798.27641796344, 2672705.6073800097]
      }
    },
    {
      "type": "Feature",
      "properties": {
        "Road_ID": 1,
        "Road_Name": "Main_Road1",
        "Road_Type": "Main",
        "distance": 2100.0,
        "angle": 222.27368900530155,
        "group": "Main",
        "sign_size": "4 × 5 m"
      },
      "geometry": {
        "type": "Point",
        "coordinates": [484711.9779559809, 2672583.5244475878]
      }
    },
    {
      "type": "Feature",
      "properties": {
        "Road_ID": 1,
        "Road_Name": "Main_Road1",
        "Road_Type": "Main",
        "distance": 2250.0,
        "angle": 236.02345596326444,
        "group": "Main",
        "sign_size": "4 × 5 m"
      },
      "geometry": {
        "type": "Point",
        "coordinates": [484600.05576660583, 2672484.56694834]
      }
    },
    {
      "type": "Feature",
      "properties": {
        "fid": 1,
        "id": 3,
        "distance": 75.0,
        "angle": 245.99599235145882,
        "group": "NB",
        "sign_size": "2 × 3 m"
      },
      "geometry": {
        "type": "Point",
        "coordinates": [485844.29413747607, 2675695.1015788456]
      }
    },
    {
      "type": "Feature",
      "properties": {
        "fid": 2,
        "id": 3,
        "distance": 150.0,
        "angle": 239.83499219431988,
        "group": "NB",
        "sign_size": "2 × 3 m"
      },
      "geometry": {
        "type": "Point",
        "coordinates": [485777.1616993831, 2675661.8033572873]
      }
    },
    {
      "type": "Feature",
      "properties": {
        "fid": 3,
        "id": 3,
        "distance": 225.0,
        "angle": 229.71475451869506,
        "group": "NB",
        "sign_size": "2 × 3 m"
      },
      "geometry": {
        "type": "Point",
        "coordinates": [485716.01363320474, 2675618.578774441]
      }
    },
    {
      "type": "Feature",
      "properties": {
        "fid": 4,
        "id": 3,
        "distance": 300.0,
        "angle": 228.52145337735118,
        "group": "NB",
        "sign_size": "2 × 3 m"
      },
      "geometry": {
        "type": "Point",
        "coordinates": [485659.6591313248, 2675569.09810886]
      }
    },
    {
      "type": "Feature",
      "properties": {
        "fid": 5,
        "id": 3,
        "distance": 375.0,
        "angle": 228.81407483430849,
        "group": "NB",
        "sign_size": "2 × 3 m"
      },
      "geometry": {
        "type": "Point",
        "coordinates": [485602.8643124604, 2675520.1180460113]
      }
    },
    {
      "type": "Feature",
      "properties": {
        "fid": 6,
        "id": 3,
        "distance": 450.0,
        "angle": 229.13467137359788,
        "group": "NB",
        "sign_size": "2 × 3 m"
      },
      "geometry": {
        "type": "Point",
        "coordinates": [485545.38298092876, 2675471.9920797213]
      }
    },
    {
      "type": "Feature",
      "properties": {
        "fid": 7,
        "id": 3,
        "distance": 525.0,
        "angle": 230.55994726312758,
        "group": "NB",
        "sign_size": "2 × 3 m"
      },
      "geometry": {
        "type": "Point",
        "coordinates": [485488.3455234123, 2675423.2943762466]
      }
    },
    {
      "type": "Feature",
      "properties": {
        "fid": 8,
        "id": 3,
        "distance": 600.0,
        "angle": 228.81407483455573,
        "group": "NB",
        "sign_size": "2 × 3 m"
      },
      "geometry": {
        "type": "Point",
        "coordinates": [485431.576894434, 2675374.307955975]
      }
    },
    {
      "type": "Feature",
      "properties": {
        "fid": 9,
        "id": 3,
        "distance": 675.0,
        "angle": 229.86451443798663,
        "group": "NB",
        "sign_size": "2 × 3 m"
      },
      "geometry": {
        "type": "Point",
        "coordinates": [485374.1602763692, 2675326.0678509045]
      }
    },
    {
      "type": "Feature",
      "properties": {
        "fid": 10,
        "id": 3,
        "distance": 750.0,
        "angle": 228.36646066332477,
        "group": "NB",
        "sign_size": "2 × 3 m"
      },
      "geometry": {
        "type": "Point",
        "coordinates": [485317.81823036837, 2675276.569215738]
      }
    },
    {
      "type": "Feature",
      "properties": {
        "fid": 11,
        "id": 3,
        "distance": 825.0,
        "angle": 229.01958248809012,
        "group": "NB",
        "sign_size": "2 × 3 m"
      },
      "geometry": {
        "type": "Point",
        "coordinates": [485260.6176299714, 2675228.070700951]
      }
    },
    {
      "type": "Feature",
      "properties": {
        "fid": 12,
        "id": 3,
        "distance": 900.0,
        "angle": 224.85040300419399,
        "group": "NB",
        "sign_size": "2 × 3 m"
      },
      "geometry": {
        "type": "Point",
        "coordinates": [485205.1523388128, 2675177.624993055]
      }
    },
    {
      "type": "Feature",
      "properties": {
        "fid": 13,
        "id": 3,
        "distance": 975.0,
        "angle": 219.44702896743692,
        "group": "NB",
        "sign_size": "2 × 3 m"
      },
      "geometry": {
        "type": "Point",
        "coordinates": [485153.78825735237, 2675123.0252019954]
      }
    },
    {
      "type": "Feature",
      "properties": {
        "fid": 14,
        "id": 3,
        "distance": 1050.0,
        "angle": 212.95742485713768,
        "group": "NB",
        "sign_size": "2 × 3 m"
      },
      "geometry": {
        "type": "Point",
        "coordinates": [485108.96234651445, 2675062.955063567]
      }
    },
    {
      "type": "Feature",
      "properties": {
        "fid": 15,
        "id": 3,
        "distance": 1125.0,
        "angle": 208.01789354660846,
        "group": "NB",
        "sign_size": "2 × 3 m"
      },
      "geometry": {
        "type": "Point",
        "coordinates": [485072.1914329658, 2674997.6295786318]
      }
    },
    {
      "type": "Feature",
      "properties": {
        "id": 4,
        "distance": 112.5,
        "angle": 244.84069808344594,
        "group": "SB",
        "sign_size": "1 × 2 m"
      },
      "geometry": {
        "type": "Point",
        "coordinates": [485819.0875431284, 2675657.155056057]
      }
    },
    {
      "type": "Feature",
      "properties": {
        "id": 4,
        "distance": 187.5,
        "angle": 231.70983680788359,
        "group": "SB",
        "sign_size": "1 × 2 m"
      },
      "geometry": {
        "type": "Point",
        "coordinates": [485755.5867752156, 2675617.8302475233]
      }
    },
    {
      "type": "Feature",
      "properties": {
        "id": 4,
        "distance": 262.5,
        "angle": 228.36646066400172,
        "group": "SB",
        "sign_size": "1 × 2 m"
      },
      "geometry": {
        "type": "Point",
        "coordinates": [485699.2399561601, 2675568.423287606]
      }
    },
    {
      "type": "Feature",
      "properties": {
        "id": 4,
        "distance": 337.5,
        "angle": 229.93921554192195,
        "group": "SB",
        "sign_size": "1 × 2 m"
      },
      "geometry": {
        "type": "Point",
        "coordinates": [485642.36755946675, 2675519.5405801856]
      }
    },
    {
      "type": "Feature",
      "properties": {
        "id": 4,
        "distance": 412.5,
        "angle": 229.74652314412694,
        "group": "SB",
        "sign_size": "1 × 2 m"
      },
      "geometry": {
        "type": "Point",
        "coordinates": [485584.6053235863, 2675471.7150832186]
      }
    },
    {
      "type": "Feature",
      "properties": {
        "id": 4,
        "distance": 487.5,
        "angle": 229.08561677992557,
        "group": "SB",
        "sign_size": "1 × 2 m"
      },
      "geometry": {
        "type": "Point",
        "coordinates": [485527.60479192156, 2675422.973350192]
      }
    },
    {
      "type": "Feature",
      "properties": {
        "id": 4,
        "distance": 562.5,
        "angle": 228.57633437512112,
        "group": "SB",
        "sign_size": "1 × 2 m"
      },
      "geometry": {
        "type": "Point",
        "coordinates": [485470.62737137655, 2675374.209138529]
      }
    },
    {
      "type": "Feature",
      "properties": {
        "id": 4,
        "distance": 637.5,
        "angle": 229.22223020621303,
        "group": "SB",
        "sign_size": "1 × 2 m"
      },
      "geometry": {
        "type": "Point",
        "coordinates": [485414.06016521814, 2675324.96442758]
      }
    },
    {
      "type": "Feature",
      "properties": {
        "id": 4,
        "distance": 712.5,
        "angle": 229.460848258277,
        "group": "SB",
        "sign_size": "1 × 2 m"
      },
      "geometry": {
        "type": "Point",
        "coordinates": [485356.8124860415, 2675276.514167228]
      }
    },
    {
      "type": "Feature",
      "properties": {
        "id": 4,
        "distance": 787.5,
        "angle": 228.17983012007628,
        "group": "SB",
        "sign_size": "1 × 2 m"
      },
      "geometry": {
        "type": "Point",
        "coordinates": [485300.3111063219, 2675227.1998846773]
      }
    },
    {
      "type": "Feature",
      "properties": {
        "id": 4,
        "distance": 862.5,
        "angle": 224.99999999995939,
        "group": "SB",
        "sign_size": "1 × 2 m"
      },
      "geometry": {
        "type": "Point",
        "coordinates": [485245.11458592885, 2675176.4393805717]
      }
    },
    {
      "type": "Feature",
      "properties": {
        "id": 4,
        "distance": 937.5,
        "angle": 223.86182299263513,
        "group": "SB",
        "sign_size": "1 × 2 m"
      },
      "geometry": {
        "type": "Point",
        "coordinates": [485192.4749456979, 2675123.0207412625]
      }
    },
    {
      "type": "Feature",
      "properties": {
        "id": 4,
        "distance": 1012.5,
        "angle": 217.58850714100487,
        "group": "SB",
        "sign_size": "1 × 2 m"
      },
      "geometry": {
        "type": "Point",
        "coordinates": [485143.9554808756, 2675065.9157293145]
      }
    },
    {
      "type": "Feature",
      "properties": {
        "id": 4,
        "distance": 1087.5,
        "angle": 210.57922687217152,
        "group": "SB",
        "sign_size": "1 × 2 m"
      },
      "geometry": {
        "type": "Point",
        "coordinates": [485103.6519856692, 2675002.8485330814]
      }
    }
  ]
}